OBJECT_NAME,OBJECT_ID,EPOCH,MEAN_MOTION,ECCENTRICITY,INCLINATION,RA_OF_ASC_NODE,ARG_OF_PERICENTER,MEAN_ANOMALY,EPHEMERIS_TYPE,CLASSIFICATION_TYPE,NORAD_CAT_ID,ELEMENT_SET_NO,REV_AT_EPOCH,BSTAR,MEAN_MOTION_DOT,MEAN_MOTION_DDOT
CUTE-1 (CO-55),2003-031E,2026-07-08T22:54:25.227360,14.24348882,.00106848,98.6739,198.2397,118.8005,241.4249,0,U,27844,999,19477,.10410026E-3,.197E-5,0
CUBESAT XI-IV (CO-57),2003-031J,2026-07-08T11:05:05.892000,14.23632050,.00102587,98.6772,197.4488,137.0463,223.1519,0,U,27848,999,19440,.99678022E-4,.184E-5,0
CUBESAT XI-V,2005-043F,2026-07-09T16:31:32.390112,14.72693331,.0015063,98.3008,346.7863,131.3789,228.8716,0,U,28895,999,10506,.15777E-3,.955E-5,0
CUTE-1.7+APD II (CO-65),2008-021C,2026-07-09T20:27:17.232192,15.09668455,.0007395,97.8283,172.7468,321.0588,39.0107,0,U,32785,999,98861,.19206E-3,.3026E-4,0
CANX-2,2008-021H,2026-07-09T18:00:24.395040,15.05783400,.0009345,97.8653,170.9698,337.3956,22.6857,0,U,32790,999,98820,.18803E-3,.2661E-4,0
SEEDS II (CO-66),2008-021J,2026-07-08T22:26:38.629248,15.33517693,.00023514,97.7528,188.8830,170.9352,189.1933,0,U,32791,999,99062,.39659306E-3,.12773E-3,0
SWISSCUBE,2009-051B,2026-07-09T12:58:48.892224,14.62524151,.0007556,98.4016,98.8171,134.3316,225.8505,0,U,35932,999,89242,.13666E-3,.644E-5,0
BEESAT-1,2009-051C,2026-07-09T13:29:13.081344,14.61756321,.0005799,98.3943,98.4270,144.7622,215.3963,0,U,35933,999,89245,.1159E-3,.529E-5,0
ITUPSAT1,2009-051E,2026-07-08T13:04:29.830080,14.60472478,.00076108,98.4027,96.5634,162.4704,197.6760,0,U,35935,999,89185,.12544193E-3,.56E-5,0
TISAT 1,2010-035E,2026-07-09T14:00:34.219296,15.32585813,.0004097,98.0702,139.1348,131.0944,229.0650,0,U,36799,999,87113,.47466E-3,.14864E-3,0
STRAND-1,2013-009E,2026-07-09T18:03:45.796032,14.37176789,.0009109,98.3931,10.4326,156.1916,203.9694,0,U,39090,999,70030,.76183E-4,.184E-5,0
BRITE-AUSTRIA,2013-009F,2026-07-08T22:32:48.990624,14.36550763,.00103859,98.4005,8.8378,168.5831,191.5593,0,U,39091,999,70017,.53492733E-4,.114E-5,0
NEE-01 PEGASO,2013-018B,2026-07-09T15:21:07.077600,14.93776228,.0013875,98.1250,335.5366,90.6498,269.6310,0,U,39151,999,71405,.12199E-3,.1233E-4,0
POPACS 2,2013-055E,2026-07-09T05:58:19.946208,14.91853625,.04154574,80.9909,118.9327,122.9592,241.2292,0,U,39269,999,66650,.24178562E-3,.14766E-3,-.881509E-6
POPACS 3,2013-055F,2026-07-09T17:20:24.095904,14.56564078,.0549453,80.9989,204.7441,1.3733,358.8814,0,U,39270,999,64183,.22681E-3,.9573E-4,0
ZACUBE-1 (TSHEPISOSAT),2013-066B,2026-07-09T03:16:03.961344,15.01311101,.00436571,97.8016,152.5825,174.6140,185.5562,0,U,39417,999,68402,.12533182E-3,.1581E-4,0
WNISAT-1,2013-066H,2026-07-09T17:17:10.291200,14.58111963,.0163527,97.7228,338.2802,160.4768,200.2795,0,U,39423,999,67001,.16227E-3,.85E-5,0
TRITON-1,2013-066M,2026-07-09T20:24:56.349216,14.81785190,.0090157,97.8224,100.1399,159.4144,201.0739,0,U,39427,999,67744,.20926E-3,.1715E-4,0
GOMX-1,2013-066Q,2026-07-09T19:00:46.227744,14.69533953,.0128782,97.6479,29.8286,5.5778,354.6828,0,U,39430,999,67323,.15327E-3,.98E-5,0
CUBEBUG-2 (LO-74),2013-066AA,2026-07-09T02:24:20.780064,14.93942821,.00561801,97.8908,139.1745,316.1471,43.5295,0,U,39440,999,68026,.1629533E-3,.1725E-4,0
NEE-02 KRYSAOR,2013-066AB,2026-07-09T14:55:28.005024,14.86724098,.0065916,97.8891,129.6781,357.6613,2.4284,0,U,39441,999,67953,.16157E-3,.1435E-4,0
FUNCUBE-1 (AO-73),2013-066AE,2026-07-09T15:49:16.506048,15.09773935,.0037793,97.8287,162.5794,125.6357,234.8401,0,U,39444,999,68305,.31236E-3,.506E-4,0
UWE-3,2013-066AG,2026-07-08T08:04:01.539552,14.97171964,.00475215,97.8696,145.5560,248.4998,111.1154,0,U,39446,999,68074,.1520418E-3,.1733E-4,0
BRITE-CA1 (TORONTO),2014-033L,2026-07-09T04:30:04.468608,14.72715027,.00780057,97.9764,318.7133,205.5751,154.1590,0,U,40020,999,64545,.1176575E-3,.733E-5,0
DUCHIFAT-1,2014-033M,2026-07-09T02:48:14.645952,15.69759950,.0001719,98.0435,252.4424,258.2829,101.8238,0,U,40021,999,65918,.8115863E-3,.97268E-3,0
NANOSATC-BR1,2014-033Q,2026-07-08T21:25:51.070944,15.32184216,.00053051,98.0720,224.2139,111.5840,248.5966,0,U,40024,999,65730,.39647021E-3,.12243E-3,0
QB50P1,2014-033R,2026-07-08T23:06:16.072128,15.18602701,.00099759,98.0972,202.6398,143.0121,217.1801,0,U,40025,999,65633,.25681755E-3,.5242E-4,0
QB50P2,2014-033Y,2026-07-09T19:35:04.526304,15.15461422,.0009315,98.0761,189.1099,98.7744,261.4542,0,U,40032,999,65609,.28728E-3,.5365E-4,0
PERSEUS-M2,2014-033AD,2026-07-09T17:52:00.649344,14.95576334,.0010664,97.9966,141.7453,218.6967,141.3490,0,U,40037,999,65415,.1244E-3,.132E-4,0
PERSEUS-M1,2014-033AF,2026-07-09T13:57:48.697632,14.95701333,.0010603,97.9647,135.0829,216.9043,143.1448,0,U,40039,999,65398,.11701E-3,.1243E-4,0
